start=new Date('2023-05-15T00:00:00.000Z').valueOf();
sats=[{"LAUNCH_DATE":"2022-08-10","TIME_SYSTEM":"UTC","SITE":"AFETR","ARG_OF_PERICENTER":"95.4114","PERIOD":"95.438","EPOCH":"2023-05-14T03:53:33.879552","REV_AT_EPOCH":"4321","CENTER_NAME":"EARTH","DECAY_DATE":null,"APOAPSIS":"540.635","MEAN_MOTION_DDOT":"0.0000000000000","RA_OF_ASC_NODE":"50.0194","INCLINATION":"53.2183","MEAN_ELEMENT_THEORY":"SGP4","TLE_LINE2":"2 53436  53.2183  50.0194 0001285  95.4114 264.7025 15.08839726 43219","FILE":"3907744","MEAN_ANOMALY":"264.7025","REF_FRAME":"TEME","OBJECT_NAME":"STARLINK-4527","RCS_SIZE":"LARGE","GP_ID":"231821455","CLASSIFICATION_TYPE":"U","OBJECT_TYPE":"PAYLOAD","OBJECT_ID":"2022-097BA","ECCENTRICITY":"0.00012850","PERIAPSIS":"538.857","TLE_LINE1":"1 53436U 22097BA  23134.16219768  .00000569  00000-0  53855-4 0  9994","MEAN_MOTION":"15.08839726","SEMIMAJOR_AXIS":"6917.881","NORAD_CAT_ID":"53436","MEAN_MOTION_DOT":"0.00000569","BSTAR":"0.00005385500000","ELEMENT_SET_NO":"999","COUNTRY_CODE":"US","EPHEMERIS_TYPE":"0"},{"EPOCH":"2023-05-14T03:48:15.588864","PERIOD":"95.437","ARG_OF_PERICENTER":"82.0793","SITE":"AFETR","LAUNCH_DATE":"2022-08-10","TIME_SYSTEM":"UTC","MEAN_MOTION_DDOT":"0.0000000000000","APOAPSIS":"540.641","DECAY_DATE":null,"CENTER_NAME":"EARTH","REV_AT_EPOCH":"4322","REF_FRAME":"TEME","MEAN_ANOMALY":"278.0347","FILE":"3907744","TLE_LINE2":"2 53438  53.2175  49.9968 0001306  82.0793 278.0347 15.08842480 43224","MEAN_ELEMENT_THEORY":"SGP4","INCLINATION":"53.2175","RA_OF_ASC_NODE":"49.9968","ECCENTRICITY":"0.00013060","OBJECT_ID":"2022-097BC","OBJECT_TYPE":"PAYLOAD","GP_ID":"231821703","CLASSIFICATION_TYPE":"U","RCS_SIZE":"LARGE","OBJECT_NAME":"STARLINK-4526","MEAN_MOTION_DOT":"0.00002285","NORAD_CAT_ID":"53438","SEMIMAJOR_AXIS":"6917.873","MEAN_MOTION":"15.08842480","TLE_LINE1":"1 53438U 22097BC  23134.15851376  .00002285  00000-0  16162-3 0  9998","PERIAPSIS":"538.834","ELEMENT_SET_NO":"999","BSTAR":"0.00016162000000","EPHEMERIS_TYPE":"0","COUNTRY_CODE":"US"},{"DECAY_DATE":null,"CENTER_NAME":"EARTH","MEAN_MOTION_DDOT":"0.0000000000000","APOAPSIS":"540.527","REV_AT_EPOCH":"4322","TLE_LINE2":"2 53439  53.2181  49.9741 0001143  83.2939 276.8183 15.08842879 43221","FILE":"3907744","REF_FRAME":"TEME","MEAN_ANOMALY":"276.8183","INCLINATION":"53.2181","RA_OF_ASC_NODE":"49.9741","MEAN_ELEMENT_THEORY":"SGP4","PERIOD":"95.437","EPOCH":"2023-05-14T03:42:57.288672","SITE":"AFETR","TIME_SYSTEM":"UTC","LAUNCH_DATE":"2022-08-10","ARG_OF_PERICENTER":"83.2939","ELEMENT_SET_NO":"999","BSTAR":"0.00004616100000","COUNTRY_CODE":"US","EPHEMERIS_TYPE":"0","OBJECT_TYPE":"PAYLOAD","ECCENTRICITY":"0.00011430","OBJECT_ID":"2022-097BD","OBJECT_NAME":"STARLINK-4519","GP_ID":"231822456","CLASSIFICATION_TYPE":"U","RCS_SIZE":"LARGE","NORAD_CAT_ID":"53439","SEMIMAJOR_AXIS":"6917.872","MEAN_MOTION_DOT":"0.00000447","TLE_LINE1":"1 53439U 22097BD  23134.15482973  .00000447  00000-0  46161-4 0  9993","PERIAPSIS":"538.946","MEAN_MOTION":"15.08842879"},{"MEAN_ANOMALY":"248.3082","REF_FRAME":"TEME","FILE":"3908005","TLE_LINE2":"2 53465  97.6554 256.4459 0001694 111.8323 248.3082 15.01261501 41481","MEAN_ELEMENT_THEORY":"SGP4","RA_OF_ASC_NODE":"256.4459","INCLINATION":"97.6554","APOAPSIS":"564.183","MEAN_MOTION_DDOT":"0.0000000000000","CENTER_NAME":"EARTH","DECAY_DATE":null,"REV_AT_EPOCH":"4148","EPOCH":"2023-05-14T21:09:54.686016","PERIOD":"95.919","ARG_OF_PERICENTER":"111.8323","TIME_SYSTEM":"UTC","LAUNCH_DATE":"2022-08-12","SITE":"AFWTR","EPHEMERIS_TYPE":"0","COUNTRY_CODE":"US","ELEMENT_SET_NO":"999","BSTAR":"0.00030435000000","MEAN_MOTION_DOT":"0.00003852","SEMIMAJOR_AXIS":"6941.142","NORAD_CAT_ID":"53465","MEAN_MOTION":"15.01261501","PERIAPSIS":"561.831","TLE_LINE1":"1 53465U 22099A   23134.88188294  .00003852  00000-0  30435-3 0  9992","OBJECT_ID":"2022-099A","ECCENTRICITY":"0.00016940","OBJECT_TYPE":"PAYLOAD","RCS_SIZE":"LARGE","CLASSIFICATION_TYPE":"U","GP_ID":"231854068","OBJECT_NAME":"STARLINK-4415"},{"REV_AT_EPOCH":"4147","DECAY_DATE":null,"CENTER_NAME":"EARTH","MEAN_MOTION_DDOT":"0.0000000000000","APOAPSIS":"564.271","INCLINATION":"97.6549","RA_OF_ASC_NODE":"256.4439","MEAN_ELEMENT_THEORY":"SGP4","TLE_LINE2":"2 53466  97.6549 256.4439 0001813  92.2994 267.8437 15.01259606 41475","FILE":"3908005","MEAN_ANOMALY":"267.8437","REF_FRAME":"TEME","SITE":"AFWTR","LAUNCH_DATE":"2022-08-12","TIME_SYSTEM":"UTC","ARG_OF_PERICENTER":"92.2994","PERIOD":"95.919","EPOCH":"2023-05-14T21:07:14.810592","BSTAR":"-0.00002179600000","ELEMENT_SET_NO":"999","COUNTRY_CODE":"US","EPHEMERIS_TYPE":"0","OBJECT_NAME":"STARLINK-4398","CLASSIFICATION_TYPE":"U","GP_ID":"231853818","RCS_SIZE":"LARGE","OBJECT_TYPE":"PAYLOAD","ECCENTRICITY":"0.00018130","OBJECT_ID":"2022-099B","TLE_LINE1":"1 53466U 22099B   23134.88003253 -.00000339  00000-0 -21796-4 0  9994","PERIAPSIS":"561.755","MEAN_MOTION":"15.01259606","NORAD_CAT_ID":"53466","SEMIMAJOR_AXIS":"6941.148","MEAN_MOTION_DOT":"-0.00000339"},{"BSTAR":"-0.00006631300000","ELEMENT_SET_NO":"999","COUNTRY_CODE":"US","EPHEMERIS_TYPE":"0","OBJECT_NAME":"STARLINK-4394","GP_ID":"231855069","CLASSIFICATION_TYPE":"U","RCS_SIZE":"LARGE","OBJECT_TYPE":"PAYLOAD","ECCENTRICITY":"0.00008060","OBJECT_ID":"2022-099C","TLE_LINE1":"1 53467U 22099C   23134.84059494 -.00000892  00000-0 -66313-4 0  9997","PERIAPSIS":"564.955","MEAN_MOTION":"15.00448242","NORAD_CAT_ID":"53467","SEMIMAJOR_AXIS":"6943.650","MEAN_MOTION_DOT":"-0.00000892","REV_AT_EPOCH":"4148","DECAY_DATE":null,"CENTER_NAME":"EARTH","MEAN_MOTION_DDOT":"0.0000000000000","APOAPSIS":"566.075","INCLINATION":"97.6538","RA_OF_ASC_NODE":"256.6917","MEAN_ELEMENT_THEORY":"SGP4","FILE":"3908005","TLE_LINE2":"2 53467  97.6538 256.6917 0000806 243.0870 117.0272 15.00448242 41486","REF_FRAME":"TEME","MEAN_ANOMALY":"117.0272","SITE":"AFWTR","LAUNCH_DATE":"2022-08-12","TIME_SYSTEM":"UTC","ARG_OF_PERICENTER":"243.0870","PERIOD":"95.971","EPOCH":"2023-05-14T20:10:27.402816"},{"OBJECT_TYPE":"PAYLOAD","ECCENTRICITY":"0.00017660","OBJECT_ID":"2022-099D","OBJECT_NAME":"STARLINK-4400","GP_ID":"231854819","CLASSIFICATION_TYPE":"U","RCS_SIZE":"LARGE","NORAD_CAT_ID":"53468","SEMIMAJOR_AXIS":"6941.140","MEAN_MOTION_DOT":"0.00001116","TLE_LINE1":"1 53468U 22099D   23134.87842563  .00001116  00000-0  91484-4 0  9993","PERIAPSIS":"561.779","MEAN_MOTION":"15.01262272","ELEMENT_SET_NO":"999","BSTAR":"0.00009148400000","COUNTRY_CODE":"US","EPHEMERIS_TYPE":"0","PERIOD":"95.919","EPOCH":"2023-05-14T21:04:55.974432","SITE":"AFWTR","TIME_SYSTEM":"UTC","LAUNCH_DATE":"2022-08-12","ARG_OF_PERICENTER":"101.0347","DECAY_DATE":null,"CENTER_NAME":"EARTH","MEAN_MOTION_DDOT":"0.0000000000000","APOAPSIS":"564.231","REV_AT_EPOCH":"4147","FILE":"3908005","TLE_LINE2":"2 53468  97.6558 256.4335 0001766 101.0347 259.1076 15.01262272 41476","REF_FRAME":"TEME","MEAN_ANOMALY":"259.1076","INCLINATION":"97.6558","RA_OF_ASC_NODE":"256.4335","MEAN_ELEMENT_THEORY":"SGP4"},{"LAUNCH_DATE":"2022-08-12","TIME_SYSTEM":"UTC","SITE":"AFWTR","ARG_OF_PERICENTER":"101.9376","PERIOD":"95.919","EPOCH":"2023-05-14T20:59:14.786880","REV_AT_EPOCH":"4147","CENTER_NAME":"EARTH","DECAY_DATE":null,"APOAPSIS":"564.077","MEAN_MOTION_DDOT":"0.0000000000000","RA_OF_ASC_NODE":"256.4386","INCLINATION":"97.6550","MEAN_ELEMENT_THEORY":"SGP4","TLE_LINE2":"2 53469  97.6550 256.4386 0001547 101.9376 258.2021 15.01262673 41478","FILE":"3908005","MEAN_ANOMALY":"258.2021","REF_FRAME":"TEME","OBJECT_NAME":"STARLINK-4399","RCS_SIZE":"LARGE","GP_ID":"231853568","CLASSIFICATION_TYPE":"U","OBJECT_TYPE":"PAYLOAD","OBJECT_ID":"2022-099E","ECCENTRICITY":"0.00015470","PERIAPSIS":"561.930","TLE_LINE1":"1 53469U 22099E   23134.87447670  .00000145  00000-0  15876-4 0  9996","MEAN_MOTION":"15.01262673","SEMIMAJOR_AXIS":"6941.139","NORAD_CAT_ID":"53469","MEAN_MOTION_DOT":"0.00000145","BSTAR":"0.00001587600000","ELEMENT_SET_NO":"999","COUNTRY_CODE":"US","EPHEMERIS_TYPE":"0"},{"TLE_LINE1":"1 53470U 22099F   23134.87632816  .00000315  00000-0  29105-4 0  9995","PERIAPSIS":"561.775","MEAN_MOTION":"15.01262424","NORAD_CAT_ID":"53470","SEMIMAJOR_AXIS":"6941.139","MEAN_MOTION_DOT":"0.00000315","OBJECT_NAME":"STARLINK-4393","GP_ID":"231854319","CLASSIFICATION_TYPE":"U","RCS_SIZE":"LARGE","OBJECT_TYPE":"PAYLOAD","ECCENTRICITY":"0.00017710","OBJECT_ID":"2022-099F","COUNTRY_CODE":"US","EPHEMERIS_TYPE":"0","BSTAR":"0.00002910500000","ELEMENT_SET_NO":"999","SITE":"AFWTR","LAUNCH_DATE":"2022-08-12","TIME_SYSTEM":"UTC","ARG_OF_PERICENTER":"108.2293","PERIOD":"95.919","EPOCH":"2023-05-14T21:01:54.753024","INCLINATION":"97.6556","RA_OF_ASC_NODE":"256.4324","MEAN_ELEMENT_THEORY":"SGP4","FILE":"3908005","TLE_LINE2":"2 53470  97.6556 256.4324 0001771 108.2293 251.9124 15.01262424 41473","MEAN_ANOMALY":"251.9124","REF_FRAME":"TEME","REV_AT_EPOCH":"4147","DECAY_DATE":null,"CENTER_NAME":"EARTH","MEAN_MOTION_DDOT":"0.0000000000000","APOAPSIS":"564.234"},{"COUNTRY_CODE":"US","EPHEMERIS_TYPE":"0","BSTAR":"0.00014927000000","ELEMENT_SET_NO":"999","TLE_LINE1":"1 53471U 22099G   23134.87077488  .00001859  00000-0  14927-3 0  9993","PERIAPSIS":"561.803","MEAN_MOTION":"15.01262907","NORAD_CAT_ID":"53471","SEMIMAJOR_AXIS":"6941.138","MEAN_MOTION_DOT":"0.00001859","OBJECT_NAME":"STARLINK-4316","CLASSIFICATION_TYPE":"U","GP_ID":"231854569","RCS_SIZE":"LARGE","OBJECT_TYPE":"PAYLOAD","ECCENTRICITY":"0.00017290","OBJECT_ID":"2022-099G","INCLINATION":"97.6545","RA_OF_ASC_NODE":"256.4356","MEAN_ELEMENT_THEORY":"SGP4","FILE":"3908005","TLE_LINE2":"2 53471  97.6545 256.4356 0001729  98.9047 261.2373 15.01262907 41478","MEAN_ANOMALY":"261.2373","REF_FRAME":"TEME","REV_AT_EPOCH":"4147","DECAY_DATE":null,"CENTER_NAME":"EARTH","MEAN_MOTION_DDOT":"0.0000000000000","APOAPSIS":"564.203","SITE":"AFWTR","LAUNCH_DATE":"2022-08-12","TIME_SYSTEM":"UTC","ARG_OF_PERICENTER":"98.9047","PERIOD":"95.919","EPOCH":"2023-05-14T20:53:54.949632"}];
